QZS-1-(MICHIBIKI-1)-----
1 37158U 10045A   22143.26501601 -.00000073  00000+0  00000+0 0  9996
2 37158  42.3092 133.7314 0758842 270.5120  74.6239  1.00264781 42836
QZS-2-(MICHIBIKI-2)-----
1 42738U 17028A   22127.70578247 -.00000212  00000+0  00000+0 0  9990
2 42738  41.8409 264.7425 0740515 270.7432  81.2225  1.00249045 18092
QZS-3-(MICHIBIKI-3)-----
1 42917U 17048A   22143.84718052 -.00000357  00000+0  00000+0 0  9994
2 42917   0.0547 202.3652 0001799 234.6662 236.4285  1.00273737 17363
QZS-4-(MICHIBIKI-4)-----
1 42965U 17062A   22143.48869321 -.00000358  00000+0  00000+0 0  9990
2 42965  40.7731   2.4301 0746265 271.0605 281.0403  1.00258685 16900
QZS-1R------------------
1 49336U 21096A   22143.77522552 -.00000233  00000+0  00000+0 0  9997
2 49336  34.4215 102.2083 0754232 270.7326 282.7877  1.00267878  2116
